{"type": "FeatureCollection", "features": [ {"type": "Feature", "properties": {"norad_id": 28649, "name": "IRS-P5 (CARTOSAT-1)", "group": "resource", "lat": 19.67950875063455, "lon": 8.970983646083429, "alt_km": 596.0290180688507, "timestamp": "2025-12-11T05:00:25.967506+00:00", "meta": {"OBJECT_NAME": "IRS-P5 (CARTOSAT-1)", "OBJECT_ID": "2005-017A", "EPOCH": "2025-12-10T19:15:01.916928", "MEAN_MOTION": 14.90393741, "ECCENTRICITY": 0.00013333, "INCLINATION": 97.5497, "RA_OF_ASC_NODE": 11.3012, "ARG_OF_PERICENTER": 46.6199, "MEAN_ANOMALY": 313.5131, "EPHEMERIS_TYPE": 0, "CLASSIFICATION_TYPE": "U", "NORAD_CAT_ID": 28649, "ELEMENT_SET_NO": 999, "REV_AT_EPOCH": 11575, "BSTAR": 0.00024901803, "MEAN_MOTION_DOT": 2.372e-05, "MEAN_MOTION_DDOT": 0}, "tle": {"line1": "1 28649U 05017A   25344.80210552  .00002372  00000+0  24902-3 0  9996", "line2": "2 28649  97.5497  11.3012 0001333  46.6199 313.5131 14.90393741115752"}}, "geometry": {"type": "Point", "coordinates": [8.970983646083429, 19.67950875063455]}}, {"type": "Feature", "properties": {"norad_id": 28893, "name": "SINAH 1", "group": "resource", "lat": 20.81455165405361, "lon": -63.07247746150949, "alt_km": 670.0772610259728, "timestamp": "2025-12-11T05:00:25.967517+00:00", "meta": {"OBJECT_NAME": "SINAH 1", "OBJECT_ID": "2005-043D", "EPOCH": "2025-12-10T21:43:23.600928", "MEAN_MOTION": 14.63959235, "ECCENTRICITY": 0.00152508, "INCLINATION": 98.2602, "RA_OF_ASC_NODE": 113.4575, "ARG_OF_PERICENTER": 142.4281, "MEAN_ANOMALY": 217.799, "EPHEMERIS_TYPE": 0, "CLASSIFICATION_TYPE": "U", "NORAD_CAT_ID": 28893, "ELEMENT_SET_NO": 999, "REV_AT_EPOCH": 7297, "BSTAR": 0.00016072257, "MEAN_MOTION_DOT": 7.94e-06, "MEAN_MOTION_DDOT": 0}, "tle": {"line1": "1 28893U 05043D   25344.90513427  .00000794  00000+0  16072-3 0  9999", "line2": "2 28893  98.2602 113.4575 0015250 142.4281 217.7990 14.63959235 72977"}}, "geometry": {"type": "Point", "coordinates": [-63.07247746150949, 20.81455165405361]}}, {"type": "Feature", "properties": {"norad_id": 29079, "name": "EROS B", "group": "resource", "lat": -43.90160077807354, "lon": 108.84290787581719, "alt_km": 371.3526691461266, "timestamp": "2025-12-11T05:00:25.967528+00:00", "meta": {"OBJECT_NAME": "EROS B", "OBJECT_ID": "2006-014A", "EPOCH": "2025-12-10T23:04:04.101312", "MEAN_MOTION": 15.67505771, "ECCENTRICITY": 0.00018747, "INCLINATION": 97.3472, "RA_OF_ASC_NODE": 101.4506, "ARG_OF_PERICENTER": 293.4032, "MEAN_ANOMALY": 66.7031, "EPHEMERIS_TYPE": 0, "CLASSIFICATION_TYPE": "U", "NORAD_CAT_ID": 29079, "ELEMENT_SET_NO": 999, "REV_AT_EPOCH": 9052, "BSTAR": 0.0018529361, "MEAN_MOTION_DOT": 0.0020536, "MEAN_MOTION_DDOT": 0}, "tle": {"line1": "1 29079U 06014A   25344.96115858  .00205360  00000+0  18529-2 0  9991", "line2": "2 29079  97.3472 101.4506 0001874 293.4032  66.7031 15.67505771 90524"}}, "geometry": {"type": "Point", "coordinates": [108.84290787581719, -43.90160077807354]}}, {"type": "Feature", "properties": {"norad_id": 29228, "name": "RESURS-DK 1", "group": "resource", "lat": 5.449874822006609, "lon": -76.20299416232028, "alt_km": 531.0317036995493, "timestamp": "2025-12-11T05:00:25.967538+00:00", "meta": {"OBJECT_NAME": "RESURS-DK 1", "OBJECT_ID": "2006-021A", "EPOCH": "2025-12-10T18:42:49.206816", "MEAN_MOTION": 15.1214377, "ECCENTRICITY": 0.00074309, "INCLINATION": 69.9334, "RA_OF_ASC_NODE": 106.9034, "ARG_OF_PERICENTER": 261.2716, "MEAN_ANOMALY": 98.7608, "EPHEMERIS_TYPE": 0, "CLASSIFICATION_TYPE": "U", "NORAD_CAT_ID": 29228, "ELEMENT_SET_NO": 999, "REV_AT_EPOCH": 7408, "BSTAR": 0.00025580505, "MEAN_MOTION_DOT": 4.317e-05, "MEAN_MOTION_DDOT": 0}, "tle": {"line1": "1 29228U 06021A   25344.77973619  .00004317  00000+0  25581-3 0  9997", "line2": "2 29228  69.9334 106.9034 0007430 261.2716  98.7608 15.12143770 74089"}}, "geometry": {"type": "Point", "coordinates": [-76.20299416232028, 5.449874822006609]}}, {"type": "Feature", "properties": {"norad_id": 29268, "name": "ARIRANG-2 (KOMPSAT-2)", "group": "resource", "lat": 60.53047157476048, "lon": 159.6688076109353, "alt_km": 675.6232380457659, "timestamp": "2025-12-11T05:00:25.967549+00:00", "meta": {"OBJECT_NAME": "ARIRANG-2 (KOMPSAT-2)", "OBJECT_ID": "2006-031A", "EPOCH": "2025-12-11T00:32:39.554592", "MEAN_MOTION": 14.64492131, "ECCENTRICITY": 0.00136272, "INCLINATION": 97.8261, "RA_OF_ASC_NODE": 173.5793, "ARG_OF_PERICENTER": 315.202, "MEAN_ANOMALY": 206.4094, "EPHEMERIS_TYPE": 0, "CLASSIFICATION_TYPE": "U", "NORAD_CAT_ID": 29268, "ELEMENT_SET_NO": 999, "REV_AT_EPOCH": 3393, "BSTAR": 0.00017604383, "MEAN_MOTION_DOT": 8.89e-06, "MEAN_MOTION_DDOT": 0}, "tle": {"line1": "1 29268U 06031A   25345.02268003  .00000889  00000+0  17604-3 0  9992", "line2": "2 29268  97.8261 173.5793 0013627 315.2020 206.4094 14.64492131 33937"}}, "geometry": {"type": "Point", "coordinates": [159.6688076109353, 60.53047157476048]}}, {"type": "Feature", "properties": {"norad_id": 29709, "name": "LAPAN-TUBSAT", "group": "resource", "lat": -58.540120760129405, "lon": 141.82856544279548, "alt_km": 627.6705322851594, "timestamp": "2025-12-11T05:00:25.967559+00:00", "meta": {"OBJECT_NAME": "LAPAN-TUBSAT", "OBJECT_ID": "2007-001A", "EPOCH": "2025-12-10T23:05:03.603264", "MEAN_MOTION": 14.85666464, "ECCENTRICITY": 0.00137034, "INCLINATION": 98.126, "RA_OF_ASC_NODE": 335.0815, "ARG_OF_PERICENTER": 79.1908, "MEAN_ANOMALY": 281.0849, "EPHEMERIS_TYPE": 0, "CLASSIFICATION_TYPE": "U", "NORAD_CAT_ID": 29709, "ELEMENT_SET_NO": 999, "REV_AT_EPOCH": 2320, "BSTAR": 0.0001140568, "MEAN_MOTION_DOT": 9.33e-06, "MEAN_MOTION_DDOT": 0}, "tle": {"line1": "1 29709U 07001A   25344.96184726  .00000933  00000+0  11406-3 0  9995", "line2": "2 29709  98.1260 335.0815 0013703  79.1908 281.0849 14.85666464 23207"}}, "geometry": {"type": "Point", "coordinates": [141.82856544279548, -58.540120760129405]}}, {"type": "Feature", "properties": {"norad_id": 31113, "name": "HAIYANG-1B", "group": "resource", "lat": 64.40141248913724, "lon": -48.26018430001696, "alt_km": 772.7852103003543, "timestamp": "2025-12-11T05:00:25.967571+00:00", "meta": {"OBJECT_NAME": "HAIYANG-1B", "OBJECT_ID": "2007-010A", "EPOCH": "2025-12-10T16:57:17.951328", "MEAN_MOTION": 14.30963969, "ECCENTRICITY": 0.00143447, "INCLINATION": 98.3313, "RA_OF_ASC_NODE": 329.0686, "ARG_OF_PERICENTER": 43.634, "MEAN_ANOMALY": 316.5975, "EPHEMERIS_TYPE": 0, "CLASSIFICATION_TYPE": "U", "NORAD_CAT_ID": 31113, "ELEMENT_SET_NO": 999, "REV_AT_EPOCH": 97367, "BSTAR": 9.8309486e-05, "MEAN_MOTION_DOT": 2.17e-06, "MEAN_MOTION_DDOT": 0}, "tle": {"line1": "1 31113U 07010A   25344.70645777  .00000217  00000+0  98309-4 0  9990", "line2": "2 31113  98.3313 329.0686 0014344  43.6340 316.5975 14.30963969973676"}}, "geometry": {"type": "Point", "coordinates": [-48.26018430001696, 64.40141248913724]}}, {"type": "Feature", "properties": {"norad_id": 31598, "name": "COSMO-SKYMED 1", "group": "resource", "lat": 39.498057194055484, "lon": -2.843943559228682, "alt_km": 576.637382487289, "timestamp": "2025-12-11T05:00:25.967582+00:00", "meta": {"OBJECT_NAME": "COSMO-SKYMED 1", "OBJECT_ID": "2007-023A", "EPOCH": "2025-12-10T23:34:01.238592", "MEAN_MOTION": 14.9574164, "ECCENTRICITY": 0.00010806, "INCLINATION": 97.8835, "RA_OF_ASC_NODE": 170.3697, "ARG_OF_PERICENTER": 85.9013, "MEAN_ANOMALY": 274.2331, "EPHEMERIS_TYPE": 0, "CLASSIFICATION_TYPE": "U", "NORAD_CAT_ID": 31598, "ELEMENT_SET_NO": 999, "REV_AT_EPOCH": 164, "BSTAR": 0.00051750748, "MEAN_MOTION_DOT": 5.709e-05, "MEAN_MOTION_DDOT": 0}, "tle": {"line1": "1 31598U 07023A   25344.98195878  .00005709  00000+0  51751-3 0  9993", "line2": "2 31598  97.8835 170.3697 0001080  85.9013 274.2331 14.95741640  1640"}}, "geometry": {"type": "Point", "coordinates": [-2.843943559228682, 39.498057194055484]}}, {"type": "Feature", "properties": {"norad_id": 31698, "name": "TERRASAR-X", "group": "resource", "lat": 26.74951220365173, "lon": -13.167694073252024, "alt_km": 506.93816356750085, "timestamp": "2025-12-11T05:00:25.967592+00:00", "meta": {"OBJECT_NAME": "TERRASAR-X", "OBJECT_ID": "2007-026A", "EPOCH": "2025-12-10T13:04:49.433376", "MEAN_MOTION": 15.19151507, "ECCENTRICITY": 0.0001862, "INCLINATION": 97.446, "RA_OF_ASC_NODE": 349.9579, "ARG_OF_PERICENTER": 94.9214, "MEAN_ANOMALY": 265.2234, "EPHEMERIS_TYPE": 0, "CLASSIFICATION_TYPE": "U", "NORAD_CAT_ID": 31698, "ELEMENT_SET_NO": 999, "REV_AT_EPOCH": 2458, "BSTAR": 9.1186e-05, "MEAN_MOTION_DOT": 1.848e-05, "MEAN_MOTION_DDOT": 0}, "tle": {"line1": "1 31698U 07026A   25344.54501659  .00001848  00000+0  91186-4 0  9994", "line2": "2 31698  97.4460 349.9579 0001862  94.9214 265.2234 15.19151507 24589"}}, "geometry": {"type": "Point", "coordinates": [-13.167694073252024, 26.74951220365173]}}, {"type": "Feature", "properties": {"norad_id": 32060, "name": "WORLDVIEW-1 (WV-1)", "group": "resource", "lat": -2.0646916446066452, "lon": 102.97879704861548, "alt_km": 495.34525233836484, "timestamp": "2025-12-11T05:00:25.967603+00:00", "meta": {"OBJECT_NAME": "WORLDVIEW-1 (WV-1)", "OBJECT_ID": "2007-041A", "EPOCH": "2025-12-10T17:59:24.935424", "MEAN_MOTION": 15.24635328, "ECCENTRICITY": 7.278e-05, "INCLINATION": 97.3835, "RA_OF_ASC_NODE": 102.2585, "ARG_OF_PERICENTER": 105.7196, "MEAN_ANOMALY": 254.4122, "EPHEMERIS_TYPE": 0, "CLASSIFICATION_TYPE": "U", "NORAD_CAT_ID": 32060, "ELEMENT_SET_NO": 999, "REV_AT_EPOCH": 1417, "BSTAR": 0.00054127505, "MEAN_MOTION_DOT": 0.00013301, "MEAN_MOTION_DDOT": 0}, "tle": {"line1": "1 32060U 07041A   25344.74959416  .00013301  00000+0  54128-3 0  9996", "line2": "2 32060  97.3835 102.2585 0000727 105.7196 254.4122 15.24635328 14178"}}, "geometry": {"type": "Point", "coordinates": [102.97879704861548, -2.0646916446066452]}}]}